ONEWEB-0551             
1 56053U 23043H   23264.07611932  .00000127  00000+0  30230-3 0  9997
2 56053  87.8947  98.3602 0001979  82.1043 278.0312 13.15546253 25810
ONEWEB-0552             
1 56054U 23043J   23264.04570503  .00002101  00000+0  50497-2 0  9993
2 56054  87.9175  83.1295 0002402 103.1248 257.0154 13.21877456 27012
ONEWEB-0553             
1 56055U 23043K   23263.91207130  .00002512  00000+0  26380-3 0  9993
2 56055  86.8983  73.6658 0004250  86.2690 273.9023 14.89088340 26742
ONEWEB-0554             
1 56056U 23043L   23263.92115616  .00002721  00000+0  28600-3 0  9991
2 56056  86.8904  73.5238 0000563 112.4278 247.7008 14.89084519 26742
ONEWEB-0555             
1 56057U 23043M   23263.94989536  .00002720  00000+0  28601-3 0  9994
2 56057  86.8940  73.5752 0002449 127.1404 233.0047 14.89069646 26748
ONEWEB-0557             
1 56058U 23043N   23263.97326564  .00002687  00000+0  28235-3 0  9999
2 56058  86.8902  73.4926 0001786 102.4666 257.6760 14.89095135 27666
ONEWEB-0558             
1 56059U 23043P   23263.88817675  .00002414  00000+0  58102-2 0  9991
2 56059  87.9157  83.1391 0002355  66.0835 294.0546 13.21835780 26097
ONEWEB-0559             
1 56060U 23043Q   23263.87562179  .00002174  00000+0  52327-2 0  9994
2 56060  87.9182  83.1408 0002805  98.5826 261.5626 13.21797243 26107
ONEWEB-0566             
1 56061U 23043R   23264.02066709  .00005970  00000+0  14418-1 0  9996
2 56061  87.9171  83.1153 0002658  80.9749 279.1686 13.21806942 27017
ONEWEB-0568             
1 56062U 23043S   23263.90041476  .00000142  00000+0  12052-4 0  9998
2 56062  86.9019  73.7309 0002252 116.5283 243.6175 14.89113550 26733
ONEWEB-0574             
1 56063U 23043T   23264.01453887  .00000060  00000+0  11471-3 0  9997
2 56063  87.9147  83.1135 0001696  61.8250 298.3055 13.21788939 27050
ONEWEB-0575             
1 56064U 23043U   23263.97541157 -.00001066  00000+0 -11632-3 0  9998
2 56064  86.9014  73.7061 0002441  91.9879 268.1628 14.89087539 27656
ONEWEB-0576             
1 56065U 23043V   23263.88590480  .00002734  00000+0  28739-3 0  9999
2 56065  86.8962  73.6547 0003286 108.6817 251.4767 14.89081456 26731
ONEWEB-0577             
1 56066U 23043W   23263.88852502  .00002817  00000+0  29633-3 0  9992
2 56066  86.9020  73.8237 0001529 132.5199 227.6157 14.89068316 26742
ONEWEB-0578             
1 56067U 23043X   23264.25001157 -.00006397  00000+0 -15526-1 0  9990
2 56067  87.9150  83.0619 0001702  85.0682  15.3037 13.21849979 27047
ONEWEB-0579             
1 56068U 23043Y   23264.25001157 -.00006882  00000+0 -16723-1 0  9990
2 56068  87.9254  83.0636 0002470  90.6635  50.5274 13.21762216 27058
ONEWEB-0581             
1 56069U 23043Z   23263.96080053 -.00000635  00000+0 -70532-4 0  9991
2 56069  86.8988  73.6535 0004240 102.5822 257.5879 14.89074016 27657
ONEWEB-0609             
1 56070U 23043AA  23264.02963090 -.00000060  00000+0 -19407-3 0  9997
2 56070  87.8920  98.3793 0001720  81.8963 278.2362 13.15549136 25845
ONEWEB-0613             
1 56071U 23043AB  23263.87327677 -.00000110  00000+0 -32615-3 0  9997
2 56071  87.8943  98.3776 0002159  86.9834 273.1543 13.15545014 24915
ONEWEB-0630             
1 56072U 23043AC  23264.09722435 -.00000056  00000+0 -18343-3 0  9995
2 56072  87.9050  98.3302 0002159  78.4114 281.7259 13.15545524 25846
ONEWEB-0632             
1 56073U 23043AD  23263.78876775  .00000016  00000+0  82851-5 0  9999
2 56073  87.8947  98.4096 0002144 103.3314 256.8056 13.15545594 24895
ONEWEB-0633             
1 56074U 23043AE  23263.78457036  .00000019  00000+0  15800-4 0  9997
2 56074  87.8938  98.4073 0002407  76.6024 283.5374 13.15545911 24874
ONEWEB-0634             
1 56075U 23043AF  23264.07076681  .00000159  00000+0  38916-3 0  9991
2 56075  87.8940  98.3443 0001645  69.5175 290.6132 13.15549190 25818
ONEWEB-0635             
1 56076U 23043AG  23264.06344005  .00000124  00000+0  29535-3 0  9998
2 56076  87.8920  98.4230 0002013 102.6846 257.4510 13.15551291 25845
ONEWEB-0636             
1 56077U 23043AH  23263.90288021  .00000110  00000+0  25737-3 0  9991
2 56077  87.8926  98.4168 0001862 103.0460 257.0878 13.15553184 24890
ONEWEB-0637             
1 56078U 23043AJ  23263.82258143  .00000030  00000+0  45399-4 0  9993
2 56078  87.8894  98.3891 0001714 102.5006 257.6316 13.15552050 24909
ONEWEB-0647             
1 56079U 23043AK  23263.81834350 -.00000033  00000+0 -12260-3 0  9998
2 56079  87.8947  98.4144 0002099  98.3857 261.7512 13.15545680 24897
ONEWEB-0651             
1 56080U 23043AL  23263.81412715 -.00000041  00000+0 -14180-3 0  9999
2 56080  87.8944  98.3896 0001611 102.9647 257.1663 13.15550496 26098
ONEWEB-0718             
1 56081U 23043AM  23263.80990992 -.00000129  00000+0 -37689-3 0  9993
2 56081  87.8873  98.4256 0001598  62.6346 297.4947 13.15551025 24902
GSLV R/B                
1 56082U 23043AN  23263.92042223  .00031747  00000+0  64750-3 0  9999
2 56082  87.4084  79.1554 0023067  53.3725 306.9650 15.45773071 27545
ONEWEB-0561             
1 56710U 23068A   23263.98137874 -.00064386  00000+0 -13139+0 0  9995
2 56710  88.1914 107.0413 0003824 131.6177 228.5292 13.33700939 17928
ONEWEB-0668             
1 56711U 23068B   23263.77733990  .00002087  00000+0  28220-3 0  9993
2 56711  86.7183  89.8667 0016281 144.2365 215.9950 14.78468818 18366
ONEWEB-0676             
1 56712U 23068C   23263.78900743  .00001773  00000+0  23986-3 0  9992
2 56712  86.7139  89.8061 0016237 145.9651 214.2614 14.78348959 18365
ONEWEB-0677             
1 56713U 23068D   23263.98236014 -.00056360  00000+0 -11357+0 0  9997
2 56713  88.1970 104.8758 0003092 111.4563 248.6909 13.34473617 18102
ONEWEB-0678             
1 56714U 23068E   23263.91667824  .00047104  00000+0  10225+0 0  9995
2 56714  87.9463  98.2285 0003146 153.5715 227.0263 13.28758964  5423
ONEWEB-0679             
1 56715U 23068F   23264.04472375  .00001818  00000+0  24507-3 0  9990
2 56715  86.7177  89.7472 0016460 143.7204 216.5136 14.78504504 19098
ONEWEB-0680             
1 56716U 23068G   23263.91667824 -.00941583  00000+0 -14605+0 0  9999
2 56716  86.7323  89.7964 0015392 149.1086  91.3374 14.76220924  5748
ONEWEB-0681             
1 56717U 23068H   23263.91667824 -.00980921  00000+0 -16129+0 0  9992
2 56717  86.7449  89.8463 0013422 147.0470 265.8174 14.73882363  5732
ONEWEB-0682             
1 56718U 23068J   23263.91667824  .00028004  00000+0  60970-1 0  9991
2 56718  87.9442  97.6981 0010490 175.4295 176.6102 13.28672115  5509
ONEWEB-0683             
1 56719U 23068K   23263.91667824  .00034238  00000+0  74770-1 0  9991
2 56719  87.9492  97.6527 0009731 174.7607 256.8840 13.28433108  5457
ONEWEB-0684             
1 56720U 23068L   23263.97278864 -.00008164  00000+0 -17844-1 0  9991
2 56720  87.9220  98.6421 0003278  75.0892 285.0609 13.28837016 18436
ONEWEB-0686             
1 56721U 23068M   23264.06657729 -.00004492  00000+0 -62360-3 0  9999
2 56721  86.7152  89.7170 0015503 145.4951 214.7279 14.78185398 19092
ONEWEB-0694             
1 56722U 23068N   23264.07005808  .00002454  00000+0  33476-3 0  9996
2 56722  86.7191  89.7823 0015824 143.4657 216.7646 14.78178387 19098
ONEWEB-0696             
1 56723U 23068P   23264.16667824 -.00058920  00000+0 -12914+0 0  9990
2 56723  87.9461  97.8165 0006052 166.8334 284.3595 13.28935420 18518
ONEWEB-0703             
1 56724U 23068Q   23264.09006976 -.00006014  00000+0 -13136-1 0  9994
2 56724  87.9155  98.5413 0003183  79.0930 281.0566 13.28904443 18458
ONEWEB-0721             
1 56725U 23068R   23263.81490373  .00002198  00000+0  26605-3 0  9996
2 56725  86.6718  88.9733 0012148 140.9097 219.3006 14.83166936 18419
